ONEWEB-0228             
1 48780U 21045P   24118.88073054  .00000104  00000+0  24285-3 0  9998
2 48780  87.9039  54.4567 0001804  81.7598 278.3737 13.15549275141732
